{"type": "FeatureCollection", "features": [ {"type": "Feature", "properties": {"norad_id": 32230, "name": "FENGYUN 1C DEB", "group": "fengyun-1c-debris", "lat": 26.669949380698423, "lon": 146.1914769009272, "alt_km": 670.7825686617225, "timestamp": "2025-12-26T05:31:12.793389+00:00", "meta": {"OBJECT_NAME": "FENGYUN 1C DEB", "OBJECT_ID": "1999-025CWC", "EPOCH": "2025-12-20T09:22:08.439744", "MEAN_MOTION": 14.56275202, "ECCENTRICITY": 0.00497589, "INCLINATION": 98.8696, "RA_OF_ASC_NODE": 144.4839, "ARG_OF_PERICENTER": 64.7578, "MEAN_ANOMALY": 324.6156, "EPHEMERIS_TYPE": 0, "CLASSIFICATION_TYPE": "U", "NORAD_CAT_ID": 32230, "ELEMENT_SET_NO": 999, "REV_AT_EPOCH": 60781, "BSTAR": 0.001606742, "MEAN_MOTION_DOT": 7.185e-05, "MEAN_MOTION_DDOT": 0}, "tle": {"line1": "1 32230U 99025CWC 25354.39037546  .00007185  00000+0  16067-2 0  9993", "line2": "2 32230  98.8696 144.4839 0049758  64.7578 324.6156 14.56275202607814"}}, "geometry": {"type": "Point", "coordinates": [146.1914769009272, 26.669949380698423]}}, {"type": "Feature", "properties": {"norad_id": 32234, "name": "FENGYUN 1C DEB", "group": "fengyun-1c-debris", "lat": 25.453438749965894, "lon": -155.0423501154879, "alt_km": 906.7063239841755, "timestamp": "2025-12-26T05:31:12.793398+00:00", "meta": {"OBJECT_NAME": "FENGYUN 1C DEB", "OBJECT_ID": "1999-025CWG", "EPOCH": "2025-12-14T12:38:46.497984", "MEAN_MOTION": 13.9413283, "ECCENTRICITY": 0.01374559, "INCLINATION": 98.529, "RA_OF_ASC_NODE": 198.2432, "ARG_OF_PERICENTER": 331.2039, "MEAN_ANOMALY": 28.1585, "EPHEMERIS_TYPE": 0, "CLASSIFICATION_TYPE": "U", "NORAD_CAT_ID": 32234, "ELEMENT_SET_NO": 999, "REV_AT_EPOCH": 93234, "BSTAR": 0.0014985343, "MEAN_MOTION_DOT": 2.108e-05, "MEAN_MOTION_DDOT": 0}, "tle": {"line1": "1 32234U 99025CWG 25348.52692706  .00002108  00000+0  14985-2 0  9997", "line2": "2 32234  98.5290 198.2432 0137455 331.2039  28.1585 13.94132830932348"}}, "geometry": {"type": "Point", "coordinates": [-155.0423501154879, 25.453438749965894]}}, {"type": "Feature", "properties": {"norad_id": 32241, "name": "FENGYUN 1C DEB", "group": "fengyun-1c-debris", "lat": -57.69914844708304, "lon": 44.87676751723611, "alt_km": 848.3683652991622, "timestamp": "2025-12-26T05:31:12.793408+00:00", "meta": {"OBJECT_NAME": "FENGYUN 1C DEB", "OBJECT_ID": "1999-025CWP", "EPOCH": "2025-12-22T19:26:55.545504", "MEAN_MOTION": 14.28813741, "ECCENTRICITY": 0.01466316, "INCLINATION": 99.0757, "RA_OF_ASC_NODE": 26.6735, "ARG_OF_PERICENTER": 194.5712, "MEAN_ANOMALY": 165.1219, "EPHEMERIS_TYPE": 0, "CLASSIFICATION_TYPE": "U", "NORAD_CAT_ID": 32241, "ELEMENT_SET_NO": 999, "REV_AT_EPOCH": 93967, "BSTAR": 0.0013225361, "MEAN_MOTION_DOT": 3.694e-05, "MEAN_MOTION_DDOT": 0}, "tle": {"line1": "1 32241U 99025CWP 25356.81036511  .00003694  00000+0  13225-2 0  9999", "line2": "2 32241  99.0757  26.6735 0146631 194.5712 165.1219 14.28813741939678"}}, "geometry": {"type": "Point", "coordinates": [44.87676751723611, -57.69914844708304]}}, {"type": "Feature", "properties": {"norad_id": 32243, "name": "FENGYUN 1C DEB", "group": "fengyun-1c-debris", "lat": 23.409109356539112, "lon": -152.719947389917, "alt_km": 808.8237757521238, "timestamp": "2025-12-26T05:31:12.793418+00:00", "meta": {"OBJECT_NAME": "FENGYUN 1C DEB", "OBJECT_ID": "1999-025CWR", "EPOCH": "2025-12-24T13:29:19.216608", "MEAN_MOTION": 14.04698676, "ECCENTRICITY": 0.02689617, "INCLINATION": 98.2678, "RA_OF_ASC_NODE": 22.149, "ARG_OF_PERICENTER": 89.9627, "MEAN_ANOMALY": 273.2359, "EPHEMERIS_TYPE": 0, "CLASSIFICATION_TYPE": "U", "NORAD_CAT_ID": 32243, "ELEMENT_SET_NO": 999, "REV_AT_EPOCH": 93754, "BSTAR": 0.0020051854, "MEAN_MOTION_DOT": 4.402e-05, "MEAN_MOTION_DDOT": 0}, "tle": {"line1": "1 32243U 99025CWR 25358.56202797  .00004402  00000+0  20052-2 0  9990", "line2": "2 32243  98.2678  22.1490 0268961  89.9627 273.2359 14.04698676937547"}}, "geometry": {"type": "Point", "coordinates": [-152.719947389917, 23.409109356539112]}}, {"type": "Feature", "properties": {"norad_id": 32245, "name": "FENGYUN 1C DEB", "group": "fengyun-1c-debris", "lat": -23.674650888618547, "lon": -158.91231205204008, "alt_km": 589.1778910048706, "timestamp": "2025-12-26T05:31:12.793428+00:00", "meta": {"OBJECT_NAME": "FENGYUN 1C DEB", "OBJECT_ID": "1999-025CWT", "EPOCH": "2025-12-23T19:06:09.631584", "MEAN_MOTION": 14.77154099, "ECCENTRICITY": 0.00966875, "INCLINATION": 98.6537, "RA_OF_ASC_NODE": 194.6492, "ARG_OF_PERICENTER": 306.9863, "MEAN_ANOMALY": 52.2524, "EPHEMERIS_TYPE": 0, "CLASSIFICATION_TYPE": "U", "NORAD_CAT_ID": 32245, "ELEMENT_SET_NO": 999, "REV_AT_EPOCH": 66269, "BSTAR": 0.0012005122, "MEAN_MOTION_DOT": 9.119e-05, "MEAN_MOTION_DDOT": 0}, "tle": {"line1": "1 32245U 99025CWT 25357.79594481  .00009119  00000+0  12005-2 0  9999", "line2": "2 32245  98.6537 194.6492 0096687 306.9863  52.2524 14.77154099662698"}}, "geometry": {"type": "Point", "coordinates": [-158.91231205204008, -23.674650888618547]}}, {"type": "Feature", "properties": {"norad_id": 32304, "name": "FENGYUN 1C DEB", "group": "fengyun-1c-debris", "lat": 45.70071805752785, "lon": 146.1297048039009, "alt_km": 697.7146071956759, "timestamp": "2025-12-26T05:31:12.793439+00:00", "meta": {"OBJECT_NAME": "FENGYUN 1C DEB", "OBJECT_ID": "1999-025CWV", "EPOCH": "2025-12-24T03:14:40.087680", "MEAN_MOTION": 14.50665703, "ECCENTRICITY": 0.00495698, "INCLINATION": 99.3996, "RA_OF_ASC_NODE": 314.0193, "ARG_OF_PERICENTER": 191.8113, "MEAN_ANOMALY": 168.1919, "EPHEMERIS_TYPE": 0, "CLASSIFICATION_TYPE": "U", "NORAD_CAT_ID": 32304, "ELEMENT_SET_NO": 999, "REV_AT_EPOCH": 56438, "BSTAR": 0.0011837985, "MEAN_MOTION_DOT": 4.67e-05, "MEAN_MOTION_DDOT": 0}, "tle": {"line1": "1 32304U 99025CWV 25358.13518620  .00004670  00000+0  11838-2 0  9995", "line2": "2 32304  99.3996 314.0193 0049569 191.8113 168.1919 14.50665703564385"}}, "geometry": {"type": "Point", "coordinates": [146.1297048039009, 45.70071805752785]}}, {"type": "Feature", "properties": {"norad_id": 32308, "name": "FENGYUN 1C DEB", "group": "fengyun-1c-debris", "lat": 6.438333576416335, "lon": 50.33802447581154, "alt_km": 801.0389035523121, "timestamp": "2025-12-26T05:31:12.793450+00:00", "meta": {"OBJECT_NAME": "FENGYUN 1C DEB", "OBJECT_ID": "1999-025CWZ", "EPOCH": "2025-12-24T02:14:10.219776", "MEAN_MOTION": 14.05552927, "ECCENTRICITY": 0.01076508, "INCLINATION": 97.7728, "RA_OF_ASC_NODE": 49.387, "ARG_OF_PERICENTER": 27.4361, "MEAN_ANOMALY": 333.2438, "EPHEMERIS_TYPE": 0, "CLASSIFICATION_TYPE": "U", "NORAD_CAT_ID": 32308, "ELEMENT_SET_NO": 999, "REV_AT_EPOCH": 65571, "BSTAR": 0.0016207472, "MEAN_MOTION_DOT": 2.742e-05, "MEAN_MOTION_DDOT": 0}, "tle": {"line1": "1 32308U 99025CWZ 25358.09317384  .00002742  00000+0  16207-2 0  9991", "line2": "2 32308  97.7728  49.3870 0107650  27.4361 333.2438 14.05552927655711"}}, "geometry": {"type": "Point", "coordinates": [50.33802447581154, 6.438333576416335]}}, {"type": "Feature", "properties": {"norad_id": 32314, "name": "FENGYUN 1C DEB", "group": "fengyun-1c-debris", "lat": -42.77934381074389, "lon": -81.64149787214394, "alt_km": 667.3657465022525, "timestamp": "2025-12-26T05:31:12.793460+00:00", "meta": {"OBJECT_NAME": "FENGYUN 1C DEB", "OBJECT_ID": "1999-025CXF", "EPOCH": "2025-12-24T00:35:54.225888", "MEAN_MOTION": 14.79780082, "ECCENTRICITY": 0.01485363, "INCLINATION": 98.8637, "RA_OF_ASC_NODE": 104.2292, "ARG_OF_PERICENTER": 122.2161, "MEAN_ANOMALY": 239.3548, "EPHEMERIS_TYPE": 0, "CLASSIFICATION_TYPE": "U", "NORAD_CAT_ID": 32314, "ELEMENT_SET_NO": 999, "REV_AT_EPOCH": 97597, "BSTAR": 0.0012677731, "MEAN_MOTION_DOT": 0.00011459, "MEAN_MOTION_DDOT": 0}, "tle": {"line1": "1 32314U 99025CXF 25358.02493317  .00011459  00000+0  12678-2 0  9995", "line2": "2 32314  98.8637 104.2292 0148536 122.2161 239.3548 14.79780082975975"}}, "geometry": {"type": "Point", "coordinates": [-81.64149787214394, -42.77934381074389]}}, {"type": "Feature", "properties": {"norad_id": 32316, "name": "FENGYUN 1C DEB", "group": "fengyun-1c-debris", "lat": -30.647915874944076, "lon": 34.1994777207616, "alt_km": 710.6134041599844, "timestamp": "2025-12-26T05:31:12.793470+00:00", "meta": {"OBJECT_NAME": "FENGYUN 1C DEB", "OBJECT_ID": "1999-025CXH", "EPOCH": "2025-12-25T13:49:23.248992", "MEAN_MOTION": 14.52034087, "ECCENTRICITY": 0.0026488, "INCLINATION": 99.5279, "RA_OF_ASC_NODE": 27.747, "ARG_OF_PERICENTER": 290.3706, "MEAN_ANOMALY": 221.4309, "EPHEMERIS_TYPE": 0, "CLASSIFICATION_TYPE": "U", "NORAD_CAT_ID": 32316, "ELEMENT_SET_NO": 999, "REV_AT_EPOCH": 95963, "BSTAR": 0.0018305, "MEAN_MOTION_DOT": 7.384e-05, "MEAN_MOTION_DDOT": 0}, "tle": {"line1": "1 32316U 99025CXH 25359.57596353  .00007384  00000+0  18305-2 0  9997", "line2": "2 32316  99.5279  27.7470 0026488 290.3706 221.4309 14.52034087959637"}}, "geometry": {"type": "Point", "coordinates": [34.1994777207616, -30.647915874944076]}}, {"type": "Feature", "properties": {"norad_id": 32320, "name": "FENGYUN 1C DEB", "group": "fengyun-1c-debris", "lat": -15.989068650499876, "lon": 37.03335599088729, "alt_km": 815.8407823080142, "timestamp": "2025-12-26T05:31:12.793481+00:00", "meta": {"OBJECT_NAME": "FENGYUN 1C DEB", "OBJECT_ID": "1999-025CXM", "EPOCH": "2025-12-22T13:40:01.485696", "MEAN_MOTION": 14.36184874, "ECCENTRICITY": 0.00563271, "INCLINATION": 100.3743, "RA_OF_ASC_NODE": 215.6434, "ARG_OF_PERICENTER": 20.562, "MEAN_ANOMALY": 339.7809, "EPHEMERIS_TYPE": 0, "CLASSIFICATION_TYPE": "U", "NORAD_CAT_ID": 32320, "ELEMENT_SET_NO": 999, "REV_AT_EPOCH": 62314, "BSTAR": 0.00080066541, "MEAN_MOTION_DOT": 2.318e-05, "MEAN_MOTION_DDOT": 0}, "tle": {"line1": "1 32320U 99025CXM 25356.56946164  .00002318  00000+0  80067-3 0  9994", "line2": "2 32320 100.3743 215.6434 0056327  20.5620 339.7809 14.36184874623144"}}, "geometry": {"type": "Point", "coordinates": [37.03335599088729, -15.989068650499876]}}]}